[{"OBJECT_NAME":"STARLINK-5753","OBJECT_ID":"2023-020N","EPOCH":"2026-03-09T04:40:40.135008","MEAN_MOTION":15.02539554,"ECCENTRICITY":0.00012443,"INCLINATION":43.0065,"RA_OF_ASC_NODE":7.4343,"ARG_OF_PERICENTER":269.1232,"MEAN_ANOMALY":90.9468,"EPHEMERIS_TYPE":0,"CLASSIFICATION_TYPE":"U","NORAD_CAT_ID":55581,"ELEMENT_SET_NO":999,"REV_AT_EPOCH":16884,"BSTAR":-9.278982e-6,"MEAN_MOTION_DOT":-3.29e-6,"MEAN_MOTION_DDOT":0},{"OBJECT_NAME":"DELTA 1 DEB","OBJECT_ID":"1975-004G","EPOCH":"2026-03-09T15:36:08.786016","MEAN_MOTION":14.94952077,"ECCENTRICITY":0.0108933,"INCLINATION":98.7496,"RA_OF_ASC_NODE":312.2418,"ARG_OF_PERICENTER":37.6041,"MEAN_ANOMALY":323.2729,"EPHEMERIS_TYPE":0,"CLASSIFICATION_TYPE":"U","NORAD_CAT_ID":8679,"ELEMENT_SET_NO":999,"REV_AT_EPOCH":62753,"BSTAR":0.0013803,"MEAN_MOTION_DOT":0.00016927,"MEAN_MOTION_DDOT":0}]
